[{"OBJECT_NAME":"STARLINK-37148","OBJECT_ID":"2026-057S","EPOCH":"2026-04-04T22:00:01.999584","MEAN_MOTION":15.83069708,"ECCENTRICITY":0.00017954,"INCLINATION":97.2764,"RA_OF_ASC_NODE":218.6007,"ARG_OF_PERICENTER":79.0288,"MEAN_ANOMALY":124.1097,"EPHEMERIS_TYPE":0,"CLASSIFICATION_TYPE":"U","NORAD_CAT_ID":68310,"ELEMENT_SET_NO":999,"REV_AT_EPOCH":347,"BSTAR":-0.0090431612,"MEAN_MOTION_DOT":-0.01673914,"MEAN_MOTION_DDOT":0},{"OBJECT_NAME":"STARLINK-37140","OBJECT_ID":"2026-057T","EPOCH":"2026-04-04T22:00:01.999584","MEAN_MOTION":15.83059553,"ECCENTRICITY":0.00017257,"INCLINATION":97.277,"RA_OF_ASC_NODE":218.5995,"ARG_OF_PERICENTER":85.3331,"MEAN_ANOMALY":113.5373,"EPHEMERIS_TYPE":0,"CLASSIFICATION_TYPE":"U","NORAD_CAT_ID":68311,"ELEMENT_SET_NO":999,"REV_AT_EPOCH":363,"BSTAR":-0.0089859076,"MEAN_MOTION_DOT":-0.01663956,"MEAN_MOTION_DDOT":0},{"OBJECT_NAME":"STARLINK-36854","OBJECT_ID":"2026-057U","EPOCH":"2026-04-04T22:00:01.999584","MEAN_MOTION":15.83078338,"ECCENTRICITY":0.00018011,"INCLINATION":97.2763,"RA_OF_ASC_NODE":218.6031,"ARG_OF_PERICENTER":77.3782,"MEAN_ANOMALY":130.0162,"EPHEMERIS_TYPE":0,"CLASSIFICATION_TYPE":"U","NORAD_CAT_ID":68312,"ELEMENT_SET_NO":999,"REV_AT_EPOCH":343,"BSTAR":-0.0090441269,"MEAN_MOTION_DOT":-0.01674668,"MEAN_MOTION_DDOT":0},{"OBJECT_NAME":"STARLINK-36815","OBJECT_ID":"2026-057V","EPOCH":"2026-04-04T22:00:01.999584","MEAN_MOTION":15.83026687,"ECCENTRICITY":0.0001738,"INCLINATION":97.2763,"RA_OF_ASC_NODE":218.6053,"ARG_OF_PERICENTER":82.839,"MEAN_ANOMALY":128.9536,"EPHEMERIS_TYPE":0,"CLASSIFICATION_TYPE":"U","NORAD_CAT_ID":68313,"ELEMENT_SET_NO":999,"REV_AT_EPOCH":343,"BSTAR":-0.0091083926,"MEAN_MOTION_DOT":-0.01681345,"MEAN_MOTION_DDOT":0},{"OBJECT_NAME":"STARLINK-37155","OBJECT_ID":"2026-057W","EPOCH":"2026-04-04T22:00:01.999584","MEAN_MOTION":15.82865174,"ECCENTRICITY":0.00018722,"INCLINATION":97.2752,"RA_OF_ASC_NODE":218.6095,"ARG_OF_PERICENTER":80.128,"MEAN_ANOMALY":140.4959,"EPHEMERIS_TYPE":0,"CLASSIFICATION_TYPE":"U","NORAD_CAT_ID":68314,"ELEMENT_SET_NO":999,"REV_AT_EPOCH":347,"BSTAR":-0.0086585723,"MEAN_MOTION_DOT":-0.01598285,"MEAN_MOTION_DDOT":0},{"OBJECT_NAME":"STARLINK-37150","OBJECT_ID":"2026-057X","EPOCH":"2026-04-04T22:00:01.999584","MEAN_MOTION":15.82936181,"ECCENTRICITY":0.00016517,"INCLINATION":97.2753,"RA_OF_ASC_NODE":218.6064,"ARG_OF_PERICENTER":85.3226,"MEAN_ANOMALY":130.9433,"EPHEMERIS_TYPE":0,"CLASSIFICATION_TYPE":"U","NORAD_CAT_ID":68315,"ELEMENT_SET_NO":999,"REV_AT_EPOCH":347,"BSTAR":-0.0091280612,"MEAN_MOTION_DOT":-0.01678166,"MEAN_MOTION_DDOT":0},{"OBJECT_NAME":"STARLINK-37154","OBJECT_ID":"2026-057Y","EPOCH":"2026-04-04T22:00:01.999584","MEAN_MOTION":15.82795733,"ECCENTRICITY":0.00017258,"INCLINATION":97.2741,"RA_OF_ASC_NODE":218.6114,"ARG_OF_PERICENTER":73.4636,"MEAN_ANOMALY":156.0096,"EPHEMERIS_TYPE":0,"CLASSIFICATION_TYPE":"U","NORAD_CAT_ID":68316,"ELEMENT_SET_NO":999,"REV_AT_EPOCH":338,"BSTAR":-0.0097376739,"MEAN_MOTION_DOT":-0.01764256,"MEAN_MOTION_DDOT":0},{"OBJECT_NAME":"STARLINK-37139","OBJECT_ID":"2026-057Z","EPOCH":"2026-04-04T22:00:01.999584","MEAN_MOTION":15.82824434,"ECCENTRICITY":0.0001739,"INCLINATION":97.2746,"RA_OF_ASC_NODE":218.61,"ARG_OF_PERICENTER":72.2802,"MEAN_ANOMALY":152.7738,"EPHEMERIS_TYPE":0,"CLASSIFICATION_TYPE":"U","NORAD_CAT_ID":68317,"ELEMENT_SET_NO":999,"REV_AT_EPOCH":323,"BSTAR":-0.0091822217,"MEAN_MOTION_DOT":-0.01679165,"MEAN_MOTION_DDOT":0},{"OBJECT_NAME":"STARLINK-37113","OBJECT_ID":"2026-057AA","EPOCH":"2026-04-04T22:00:01.999584","MEAN_MOTION":15.82711253,"ECCENTRICITY":0.00019182,"INCLINATION":97.2742,"RA_OF_ASC_NODE":218.6134,"ARG_OF_PERICENTER":85.0466,"MEAN_ANOMALY":148.8974,"EPHEMERIS_TYPE":0,"CLASSIFICATION_TYPE":"U","NORAD_CAT_ID":68318,"ELEMENT_SET_NO":999,"REV_AT_EPOCH":347,"BSTAR":-0.010025266,"MEAN_MOTION_DOT":-0.01842505,"MEAN_MOTION_DDOT":0},{"OBJECT_NAME":"PROGRESS-MS 33","OBJECT_ID":"2026-058A","EPOCH":"2026-04-04T20:14:42.961056","MEAN_MOTION":15.4877361,"ECCENTRICITY":0.0006326,"INCLINATION":51.6331,"RA_OF_ASC_NODE":303.0545,"ARG_OF_PERICENTER":272.5089,"MEAN_ANOMALY":87.5175,"EPHEMERIS_TYPE":0,"CLASSIFICATION_TYPE":"U","NORAD_CAT_ID":68319,"ELEMENT_SET_NO":999,"REV_AT_EPOCH":125,"BSTAR":0.00017935557,"MEAN_MOTION_DOT":9.37e-5,"MEAN_MOTION_DDOT":0},{"OBJECT_NAME":"STARLINK-36987","OBJECT_ID":"2026-059A","EPOCH":"2026-04-04T20:46:43.932000","MEAN_MOTION":15.80889056,"ECCENTRICITY":0.00016319,"INCLINATION":53.1597,"RA_OF_ASC_NODE":231.7065,"ARG_OF_PERICENTER":125.4846,"MEAN_ANOMALY":234.6329,"EPHEMERIS_TYPE":0,"CLASSIFICATION_TYPE":"U","NORAD_CAT_ID":68321,"ELEMENT_SET_NO":999,"REV_AT_EPOCH":211,"BSTAR":0.0012348731,"MEAN_MOTION_DOT":0.00250408,"MEAN_MOTION_DDOT":0},{"OBJECT_NAME":"STARLINK-37088","OBJECT_ID":"2026-059B","EPOCH":"2026-04-04T20:44:34.592064","MEAN_MOTION":15.80855828,"ECCENTRICITY":0.0001993,"INCLINATION":53.16,"RA_OF_ASC_NODE":231.6968,"ARG_OF_PERICENTER":52.0676,"MEAN_ANOMALY":308.0527,"EPHEMERIS_TYPE":0,"CLASSIFICATION_TYPE":"U","NORAD_CAT_ID":68322,"ELEMENT_SET_NO":999,"REV_AT_EPOCH":211,"BSTAR":0.00094997849,"MEAN_MOTION_DOT":0.0019085,"MEAN_MOTION_DDOT":0},{"OBJECT_NAME":"STARLINK-36983","OBJECT_ID":"2026-059C","EPOCH":"2026-04-04T17:43:33.459744","MEAN_MOTION":15.80853047,"ECCENTRICITY":0.0001429,"INCLINATION":53.1596,"RA_OF_ASC_NODE":232.3348,"ARG_OF_PERICENTER":80.86,"MEAN_ANOMALY":279.2584,"EPHEMERIS_TYPE":0,"CLASSIFICATION_TYPE":"U","NORAD_CAT_ID":68323,"ELEMENT_SET_NO":999,"REV_AT_EPOCH":209,"BSTAR":0.00016835838,"MEAN_MOTION_DOT":0.00032625,"MEAN_MOTION_DDOT":0},{"OBJECT_NAME":"STARLINK-37164","OBJECT_ID":"2026-059D","EPOCH":"2026-04-04T20:43:29.343648","MEAN_MOTION":15.80896763,"ECCENTRICITY":0.00011686,"INCLINATION":53.1601,"RA_OF_ASC_NODE":231.6919,"ARG_OF_PERICENTER":182.0367,"MEAN_ANOMALY":178.0651,"EPHEMERIS_TYPE":0,"CLASSIFICATION_TYPE":"U","NORAD_CAT_ID":68324,"ELEMENT_SET_NO":999,"REV_AT_EPOCH":324,"BSTAR":0.0014128067,"MEAN_MOTION_DOT":0.00287958,"MEAN_MOTION_DDOT":0},{"OBJECT_NAME":"STARLINK-36309","OBJECT_ID":"2026-059E","EPOCH":"2026-04-04T19:11:22.390080","MEAN_MOTION":15.8087418,"ECCENTRICITY":0.00012724,"INCLINATION":53.1605,"RA_OF_ASC_NODE":232.0039,"ARG_OF_PERICENTER":143.6263,"MEAN_ANOMALY":216.4846,"EPHEMERIS_TYPE":0,"CLASSIFICATION_TYPE":"U","NORAD_CAT_ID":68325,"ELEMENT_SET_NO":999,"REV_AT_EPOCH":210,"BSTAR":0.001155858,"MEAN_MOTION_DOT":0.00233722,"MEAN_MOTION_DDOT":0},{"OBJECT_NAME":"STARLINK-37206","OBJECT_ID":"2026-059F","EPOCH":"2026-04-04T17:39:15.075360","MEAN_MOTION":15.80922694,"ECCENTRICITY":0.00011149,"INCLINATION":53.1598,"RA_OF_ASC_NODE":232.3151,"ARG_OF_PERICENTER":63.1247,"MEAN_ANOMALY":296.989,"EPHEMERIS_TYPE":0,"CLASSIFICATION_TYPE":"U","NORAD_CAT_ID":68326,"ELEMENT_SET_NO":999,"REV_AT_EPOCH":209,"BSTAR":0.0015225178,"MEAN_MOTION_DOT":0.00311609,"MEAN_MOTION_DDOT":0}]
