STARLINK-37148          
1 68310U 26057S   26094.91668981 -.01673914  00000+0 -90432-2 0  9999
2 68310  97.2764 218.6007 0001795  79.0288 124.1097 15.83069708  3470
STARLINK-37140          
1 68311U 26057T   26094.91668981 -.01663956  00000+0 -89859-2 0  9996
2 68311  97.2770 218.5995 0001725  85.3331 113.5373 15.83059553  3639
STARLINK-36854          
1 68312U 26057U   26094.91668981 -.01674668  00000+0 -90441-2 0  9998
2 68312  97.2763 218.6031 0001801  77.3782 130.0162 15.83078338  3430
STARLINK-36815          
1 68313U 26057V   26094.91668981 -.01681345  00000+0 -91084-2 0  9993
2 68313  97.2763 218.6053 0001738  82.8390 128.9536 15.83026687  3431
STARLINK-37155          
1 68314U 26057W   26094.91668981 -.01598285  00000+0 -86586-2 0  9995
2 68314  97.2752 218.6095 0001872  80.1280 140.4959 15.82865174  3477
STARLINK-37150          
1 68315U 26057X   26094.91668981 -.01678166  00000+0 -91281-2 0  9991
2 68315  97.2753 218.6064 0001651  85.3226 130.9433 15.82936181  3475
STARLINK-37154          
1 68316U 26057Y   26094.91668981 -.01764256  00000+0 -97377-2 0  9990
2 68316  97.2741 218.6114 0001725  73.4636 156.0096 15.82795733  3384
STARLINK-37139          
1 68317U 26057Z   26094.91668981 -.01679165  00000+0 -91822-2 0  9994
2 68317  97.2746 218.6100 0001739  72.2802 152.7738 15.82824434  3233
STARLINK-37113          
1 68318U 26057AA  26094.91668981 -.01842505  00000+0 -10025-1 0  9990
2 68318  97.2742 218.6134 0001918  85.0466 148.8974 15.82711253  3472
PROGRESS-MS 33          
1 68319U 26058A   26094.84355279  .00009370  00000+0  17936-3 0  9999
2 68319  51.6331 303.0545 0006326 272.5089  87.5175 15.48773610  1251
STARLINK-36987          
1 68321U 26059A   26094.86578625  .00250408  00000+0  12349-2 0  9999
2 68321  53.1597 231.7065 0001631 125.4846 234.6329 15.80889056  2110
STARLINK-37088          
1 68322U 26059B   26094.86428926  .00190850  00000+0  94998-3 0  9993
2 68322  53.1600 231.6968 0001993  52.0676 308.0527 15.80855828  2110
STARLINK-36983          
1 68323U 26059C   26094.73858171  .00032625  00000+0  16836-3 0  9999
2 68323  53.1596 232.3348 0001429  80.8600 279.2584 15.80853047  2095
STARLINK-37164          
1 68324U 26059D   26094.86353407  .00287958  00000+0  14128-2 0  9998
2 68324  53.1601 231.6919 0001168 182.0367 178.0651 15.80896763  3245
STARLINK-36309          
1 68325U 26059E   26094.79956470  .00233722  00000+0  11559-2 0  9995
2 68325  53.1605 232.0039 0001272 143.6263 216.4846 15.80874180  2108
STARLINK-37206          
1 68326U 26059F   26094.73559115  .00311609  00000+0  15225-2 0  9990
2 68326  53.1598 232.3151 0001114  63.1247 296.9890 15.80922694  2095
